STARLINK-4391           
1 53189U 22084A   22217.58335648 -.01053941  00000+0 -10020-1 0  9996
2 53189  97.6555 276.2786 0001745  93.2484  84.1704 15.69419664  1309
STARLINK-4332           
1 53190U 22084B   22217.58335648 -.01051565  00000+0 -11365-1 0  9991
2 53190  97.6555 276.2995 0001764  83.5210  94.7584 15.66278494  1307
STARLINK-4369           
1 53191U 22084C   22217.58335648 -.01051822  00000+0 -11439-1 0  9990
2 53191  97.6555 276.3145 0001749  93.7236  72.2201 15.66124429  1305
STARLINK-4375           
1 53192U 22084D   22217.58335648 -.01051777  00000+0 -11432-1 0  9993
2 53192  97.6555 276.3126 0001749  92.1075  74.9592 15.66138429  1306
STARLINK-4351           
1 53193U 22084E   22217.58335648 -.01051783  00000+0 -11445-1 0  9995
2 53193  97.6555 276.3152 0001749  93.8556  70.9648 15.66110400  1305
STARLINK-4382           
1 53194U 22084F   22217.58335648 -.01051383  00000+0 -11437-1 0  9993
2 53194  97.6555 276.3143 0001758  83.6001  81.7821 15.66117173  1305
STARLINK-4404           
1 53195U 22084G   22217.58335648 -.01052150  00000+0 -11433-1 0  9993
2 53195  97.6555 276.3117 0001786 105.2523  62.3756 15.66145676  1309
STARLINK-4407           
1 53196U 22084H   22217.58335648 -.01051589  00000+0 -11433-1 0  9999
2 53196  97.6555 276.3135 0001750  88.1779  78.3274 15.66131320  1306
STARLINK-4403           
1 53197U 22084J   22217.58335648 -.01051943  00000+0 -11421-1 0  9991
2 53197  97.6555 276.3101 0001757  97.0914  72.2202 15.66166608  1308
STARLINK-4385           
1 53198U 22084K   22217.58335648 -.01051992  00000+0 -11428-1 0  9993
2 53198  97.6555 276.3108 0001763  99.6164  68.5728 15.66152621  1309
STARLINK-4395           
1 53199U 22084L   22217.58335648 -.01051724  00000+0 -11412-1 0  9990
2 53199  97.6555 276.3082 0001752  88.8945  81.5392 15.66180450  1309
STARLINK-4417           
1 53200U 22084M   22217.58335648 -.01051751  00000+0 -11422-1 0  9994
2 53200  97.6555 276.3109 0001750  91.4374  77.3131 15.66159468  1305
STARLINK-4405           
1 53201U 22084N   22217.58335648 -.01052020  00000+0 -11409-1 0  9990
2 53201  97.6555 276.3076 0001758  96.7680  74.7873 15.66194673  1306
STARLINK-4411           
1 53202U 22084P   22217.58335648 -.01051962  00000+0 -11418-1 0  9995
2 53202  97.6555 276.3091 0001757  96.9241  72.9486 15.66173622  1309
STARLINK-4409           
1 53203U 22084Q   22217.58335648 -.01052441  00000+0 -11404-1 0  9994
2 53203  97.6555 276.3060 0001822 110.1543  63.0829 15.66215951  1307
STARLINK-4410           
1 53204U 22084R   22217.58335648 -.01052178  00000+0 -11414-1 0  9993
2 53204  97.6555 276.3074 0001778 102.9888  68.0056 15.66187769  1306
STARLINK-4397           
1 53205U 22084S   22217.58335648 -.01052293  00000+0 -11396-1 0  9991
2 53205  97.6555 276.3043 0001781 103.1586  71.1997 15.66229884  1309
STARLINK-4408           
1 53206U 22084T   22217.58335648 -.01051715  00000+0 -11399-1 0  9993
2 53206  97.6555 276.3068 0001755  87.3889  85.2879 15.66208470  1300
STARLINK-4413           
1 53207U 22084U   22217.58335648 -.01051455  00000+0 -11383-1 0  9998
2 53207  97.6555 276.3044 0001765  82.8234  92.0954 15.66236386  1307
STARLINK-4425           
1 53208U 22084V   22217.58335648 -.01052040  00000+0 -11406-1 0  9996
2 53208  97.6555 276.3067 0001761  97.9774  74.1387 15.66201705  1303
STARLINK-4423           
1 53209U 22084W   22217.58335648 -.01051896  00000+0 -11385-1 0  9991
2 53209  97.6555 276.3035 0001754  92.3808  83.0982 15.66243679  1304
STARLINK-4427           
1 53210U 22084X   22217.58335648 -.01050849  00000+0 -11382-1 0  9997
2 53210  97.6555 276.3050 0001840  69.3620 104.4362 15.66221941  1303
STARLINK-4419           
1 53211U 22084Y   22217.58335648 -.01052484  00000+0 -11382-1 0  9995
2 53211  97.6555 276.3008 0001810 108.0555  69.1037 15.66265072  1301
STARLINK-4416           
1 53212U 22084Z   22217.58335648 -.01052085  00000+0 -11384-1 0  9995
2 53212  97.6555 276.3024 0001758  95.8023  80.2369 15.66250776  1301
STARLINK-4414           
1 53213U 22084AA  22217.58335648 -.01051601  00000+0 -11359-1 0  9991
2 53213  97.6555 276.2981 0001763  84.2599  95.1390 15.66292550  1304
STARLINK-4353           
1 53214U 22084AB  22217.58335648 -.01052019  00000+0 -11380-1 0  9990
2 53214  97.6555 276.3014 0001757  94.5640  82.0353 15.66257768  1303
STARLINK-4335           
1 53215U 22084AC  22217.58335648 -.01052574  00000+0 -11367-1 0  9992
2 53215  97.6555 276.2973 0001805 107.1864  72.7719 15.66300148  1303
STARLINK-4376           
1 53216U 22084AD  22217.58335648 -.01052317  00000+0 -11377-1 0  9999
2 53216  97.6555 276.3008 0001773 100.8583  76.8610 15.66271949  1307
STARLINK-4379           
1 53217U 22084AE  22217.58335648 -.01052521  00000+0 -11360-1 0  9999
2 53217  97.6555 276.2964 0001794 105.1496  75.9278 15.66314148  1301
STARLINK-4384           
1 53218U 22084AF  22217.58335648 -.01051751  00000+0 -11364-1 0  9998
2 53218  97.6555 276.2989 0001757  86.9770  91.8621 15.66285612  1301
STARLINK-4373           
1 53219U 22084AG  22217.58335648 -.01052487  00000+0 -11350-1 0  9991
2 53219  97.6555 276.2938 0001785 103.2021  79.5534 15.66335154  1302
STARLINK-4363           
1 53220U 22084AH  22217.58335648 -.01051805  00000+0 -11355-1 0  9991
2 53220  97.6555 276.2973 0001757  87.5232  92.9949 15.66306672  1302
STARLINK-4377           
1 53221U 22084AJ  22217.58335648 -.01052152  00000+0 -11343-1 0  9995
2 53221  97.6555 276.2939 0001758  94.1028  89.2120 15.66341940  1300
STARLINK-4381           
1 53222U 22084AK  22217.58335648 -.01052631  00000+0 -11358-1 0  9994
2 53222  97.6555 276.2954 0001811 108.0480  73.5888 15.66321218  1308
STARLINK-4354           
1 53223U 22084AL  22217.58335648 -.01052276  00000+0 -11338-1 0  9998
2 53223  97.6555 276.2920 0001764  97.1775  87.2554 15.66356052  1300
STARLINK-4356           
1 53224U 22084AM  22217.58335648 -.01052032  00000+0 -11348-1 0  9990
2 53224  97.6555 276.2945 0001757  93.3325  88.8638 15.66327884  1300
STARLINK-4358           
1 53225U 22084AN  22217.58335648 -.01052487  00000+0 -11334-1 0  9990
2 53225  97.6555 276.2903 0001776 100.9492  84.6015 15.66370184  1300
STARLINK-4359           
1 53226U 22084AP  22217.58335648 -.01052432  00000+0 -11343-1 0  9991
2 53226  97.6555 276.2928 0001773 100.2690  83.6048 15.66349126  1305
STARLINK-4366           
1 53227U 22084AQ  22217.58335648 -.01052615  00000+0 -11329-1 0  9999
2 53227  97.6555 276.2894 0001791 104.3499  82.3184 15.66384302  1302
STARLINK-4365           
1 53228U 22084AR  22217.58335648 -.01052557  00000+0 -11338-1 0  9995
2 53228  97.6555 276.2910 0001783 102.8183  82.1735 15.66363218  1309
STARLINK-4367           
1 53229U 22084AS  22217.58335648 -.01052814  00000+0 -11328-1 0  9991
2 53229  97.6555 276.2885 0001818 108.7358  78.4910 15.66391422  1300
STARLINK-4364           
1 53230U 22084AT  22217.58335648 -.01052416  00000+0 -11330-1 0  9994
2 53230  97.6555 276.2903 0001769  99.0055  87.1041 15.66377148  1305
STARLINK-4370           
1 53231U 22084AU  22217.58335648 -.01052312  00000+0 -11316-1 0  9994
2 53231  97.6554 276.2868 0001761  95.8073  92.5367 15.66405122  1306
STARLINK-4371           
1 53232U 22084AV  22217.58335648 -.01052384  00000+0 -11320-1 0  9999
2 53232  97.6554 276.2874 0001767  98.1133  89.6722 15.66398176  1305
STARLINK-4372           
1 53233U 22084AW  22217.58335648 -.01052333  00000+0 -11313-1 0  9996
2 53233  97.6554 276.2869 0001765  97.2548  91.6476 15.66412179  1307
STARLINK-4368           
1 53234U 22084AX  22217.58335648 -.01052614  00000+0 -11313-1 0  9999
2 53234  97.6554 276.2858 0001784 102.7923  86.6684 15.66419353  1302
FALCON 9 DEB            
1 53235U 22084AY  22217.39883672  .00114815  69874-5  42535-3 0  9995
2 53235  97.6747 276.3722 0010316 211.7153 148.3498 15.88090615  2327
FALCON 9 DEB            
1 53236U 22084AZ  22217.39562525  .00122745  76699-5  44551-3 0  9991
2 53236  97.6721 276.3729 0008138 198.8546 161.2425 15.88531005  2324
FALCON 9 DEB            
1 53237U 22084BA  22217.38634282  .00138324  91987-5  47003-3 0  9993
2 53237  97.6679 276.3792 0012825 193.6021 166.4907 15.89750817  2323
FALCON 9 DEB            
1 53238U 22084BB  22217.13213905  .00118965  74341-5  40081-3 0  9995
2 53238  97.6665 276.0954 0012581 182.4743 177.6469 15.89943007  2289
CSS (WENTIAN)           
1 53239U 22085A   22217.53795537  .00008435  00000+0  99322-4 0  9995
2 53239  41.4727 278.3888 0005865 348.2985 150.9182 15.61538648 72480
STARLINK-4056           
1 53242U 22086A   22217.58335648 -.00050241  00000+0 -35444-3 0  9996
2 53242  53.2192 343.7158 0007280 278.6819 283.3382 15.73236884  1309
STARLINK-4047           
1 53243U 22086B   22217.58335648  .00006945  00000+0  53910-4 0  9996
2 53243  53.2195 343.7213 0007866 276.7252 283.4687 15.73169940  1302
STARLINK-4125           
1 53244U 22086C   22217.58335648 -.00088846  00000+0 -63381-3 0  9991
2 53244  53.2194 343.7149 0001578 310.1908 252.4052 15.73254405  1308
STARLINK-4124           
1 53245U 22086D   22217.58335648 -.00090471  00000+0 -64541-3 0  9998
2 53245  53.2197 343.7203 0001925 302.1809 258.6303 15.73260299  1305
STARLINK-4131           
1 53246U 22086E   22217.58335648  .00007859  00000+0  60354-4 0  9994
2 53246  53.2202 343.7201 0001694 307.0376 254.3815 15.73204376  1302
STARLINK-4061           
1 53247U 22086F   22217.58335648 -.00094783  00000+0 -67484-3 0  9999
2 53247  53.2198 343.7161 0005039 283.5590 279.4738 15.73305527  1307
STARLINK-4135           
1 53248U 22086G   22217.58335648 -.00045079  00000+0 -31796-3 0  9991
2 53248  53.2199 343.7142 0001722 299.0900 264.7264 15.73237781  1307
STARLINK-4128           
1 53249U 22086H   22217.58335648 -.00003539  00000+0 -20773-4 0  9991
2 53249  53.2201 343.7119 0002361 293.4868 272.1065 15.73219113  1308
